[{"OBJECT_NAME":"HAIYANG-3A","OBJECT_ID":"2023-176A","EPOCH":"2026-03-09T22:59:35.740320","MEAN_MOTION":14.34139944,"ECCENTRICITY":0.00087972,"INCLINATION":98.552,"RA_OF_ASC_NODE":148.0351,"ARG_OF_PERICENTER":324.745,"MEAN_ANOMALY":35.3152,"EPHEMERIS_TYPE":0,"CLASSIFICATION_TYPE":"U","NORAD_CAT_ID":58349,"ELEMENT_SET_NO":999,"REV_AT_EPOCH":12109,"BSTAR":7.6477628e-5,"MEAN_MOTION_DOT":1.7e-6,"MEAN_MOTION_DDOT":0},{"OBJECT_NAME":"COSMOS 1867 COOLANT","OBJECT_ID":"1987-060W","EPOCH":"2026-03-08T05:20:35.929248","MEAN_MOTION":14.34040122,"ECCENTRICITY":0.00134957,"INCLINATION":65.0092,"RA_OF_ASC_NODE":290.5652,"ARG_OF_PERICENTER":280.8143,"MEAN_ANOMALY":79.1423,"EPHEMERIS_TYPE":0,"CLASSIFICATION_TYPE":"U","NORAD_CAT_ID":39659,"ELEMENT_SET_NO":999,"REV_AT_EPOCH":62221,"BSTAR":0.00016918104,"MEAN_MOTION_DOT":3.73e-6,"MEAN_MOTION_DDOT":0}]
